[Satellite]
VERSION=1.1
NAME=AEROCUBE 4.5B
NICKNAME=AEROCUBE 4.5B
TLE1=1 38768U 12048L   22342.14055116  .00008663  00000+0  53683-3 0  9993
TLE2=2 38768  64.6658 235.1303 0143407 209.8591 149.4291 15.02112982177218
STATUS=0
